[Satellite]
VERSION=1.1
NAME=MOLNIYA 3-13
NICKNAME=MOLNIYA 3-13
TLE1=1 11896U 80063A   22342.40634551 -.00000119  00000+0  00000+0 0  9993
TLE2=2 11896  62.7535 114.9033 7144716 276.5614  13.7186  2.00640534310584
STATUS=0
